STARLINK-37420          
1 69511U 26133D   26169.83335647 -.01678966  90363-3 -24211-2 0  9991
2 69511  53.1589 314.3770 0000785  55.8026 173.6788 16.04796746  2121
STARLINK-37511          
1 69512U 26133E   26169.83335647 -.01704164  92536-3 -25079-2 0  9999
2 69512  53.1594 314.3850 0000802  55.2041 170.5568 16.04465478  2125
STARLINK-37552          
1 69513U 26133F   26169.83335647 -.01675335  90325-3 -23719-2 0  9990
2 69513  53.1590 314.3700 0000759  48.5670 184.4338 16.05096645  2126
STARLINK-37607          
1 69514U 26133G   26169.83335647 -.01654553  88462-3 -23139-2 0  9995
2 69514  53.1591 314.3629 0000811  55.5360 180.5994 16.05294451  2121
STARLINK-37232          
1 69515U 26133H   26169.83335647 -.01639323  87264-3 -22513-2 0  9998
2 69515  53.1590 314.3559 0000711  57.7067 181.9504 16.05587771  2122
STARLINK-37323          
1 69516U 26133J   26169.83335647 -.01626073  86251-3 -21945-2 0  9990
2 69516  53.1590 314.3485 0000765  54.7923 188.3319 16.05868284  2124
STARLINK-37357          
1 69517U 26133K   26169.83335647 -.01625134  86345-3 -21692-2 0  9991
2 69517  53.1589 314.3422 0000790  51.1194 194.9846 16.06045835  2121
STARLINK-37408          
1 69518U 26133L   26169.83335647 -.01615830  85701-3 -21221-2 0  9997
2 69518  53.1589 314.3351 0000768  52.0142 197.4509 16.06305613  2128
STARLINK-37570          
1 69519U 26133M   26169.83335647 -.01582562  83135-3 -19929-2 0  9994
2 69519  53.1590 314.3196 0000702  57.2509 199.5997 16.06972854  2121
STARLINK-37510          
1 69520U 26133N   26169.83335647 -.01598448  84348-3 -20550-2 0  9995
2 69520  53.1585 314.3281 0000817  53.2947 199.8855 16.06644790  2122
STARLINK-37586          
1 69521U 26133P   26169.83335647 -.01553797  80831-3 -18983-2 0  9994
2 69521  53.1587 314.3063 0000671  58.8322 204.5595 16.07449138  2124
STARLINK-37379          
1 69522U 26133Q   26169.83335647 -.01544052  80080-3 -18641-2 0  9996
2 69522  53.1587 314.2997 0000678  65.7164 200.7275 16.07635732  2173
STARLINK-37429          
1 69523U 26133R   26169.83335647 -.01535213  79414-3 -18319-2 0  9997
2 69523  53.1586 314.2934 0000707  67.4096 202.0477 16.07818462  2172
STARLINK-37352          
1 69524U 26133S   26169.83335647 -.01517291  78025-3 -17728-2 0  9994
2 69524  53.1586 314.2858 0000598  70.4663 202.6154 16.08145332  2178
STARLINK-37490          
1 69525U 26133T   26169.83335647 -.01472750  74420-3 -16533-2 0  9993
2 69525  53.1583 314.2710 0000746  68.2533 211.9967 16.08762041  2176
STARLINK-37438          
1 69526U 26133U   26169.83335647 -.01509177  77513-3 -17333-2 0  9993
2 69526  53.1587 314.2794 0001072  81.1485 195.3149 16.08411488  2179
STARLINK-37484          
1 69527U 26133V   26169.83335647 -.01485656  75862-3 -16419-2 0  9998
2 69527  53.1584 314.2622 0000615  69.6539 214.7752 16.09006228  2179
STARLINK-37523          
1 69528U 26133W   26169.83335647 -.01445102  72256-3 -15772-2 0  9996
2 69528  53.1585 314.2557 0000551  68.5062 219.0031 16.09193263  2170
STARLINK-37369          
1 69529U 26133X   26169.83335647 -.01434194  71442-3 -15441-2 0  9995
2 69529  53.1581 314.2493 0000830  68.4725 222.1630 16.09401406  2172
STARLINK-37670          
1 69530U 26133Y   26169.83335647 -.01394543  68205-3 -14609-2 0  9998
2 69530  53.1583 314.2412 0001047  91.7721 202.9039 16.09813553  2172
STARLINK-37897          
1 69531U 26133Z   26169.83335647 -.01387161  67783-3 -14267-2 0  9997
2 69531  53.1582 314.2314 0000910  84.5329 214.6160 16.10092403  2120
STARLINK-37933          
1 69532U 26133AA  26169.83335647 -.01347325  64600-3 -13469-2 0  9994
2 69532  53.1581 314.2226 0000989  77.8436 225.3921 16.10516126  2129
STARLINK-37890          
1 69533U 26133AB  26169.83335647 -.01336042  63802-3 -13150-2 0  9999
2 69533  53.1583 314.2158 0001004  88.9909 217.4808 16.10749568  2127
STARLINK-37407          
1 69534U 26133AC  26169.83335647 -.01325178  63116-3 -12764-2 0  9996
2 69534  53.1581 314.2050 0001057  87.0499 224.3959 16.11072117  2178
STARLINK-37888          
1 69535U 26133AD  26169.83335647 -.01294477  60714-3 -12199-2 0  9997
2 69535  53.1583 314.1973 0000573  77.9123 237.1710 16.11394001  2129
STARLINK-37889          
1 69536U 26133AE  26169.83335647 -.01562840  81424-3 -19432-2 0  9998
2 69536  53.1603 314.3148 0000802  54.2182 205.7427 16.07171906  2125
2026-134A               
1 69538U 26134A   26167.72437802  .00000587  00000+0  41008-4 0  9998
2 69538  97.7003 237.8242 0014154 273.9919  85.9691 15.09200639   241
2026-134B               
1 69539U 26134B   26167.72421602  .00001264  00000+0  83138-4 0  9993
2 69539  97.6974 237.8233 0014487 276.4553  83.5026 15.09360646   239
