OBJECT_NAME,OBJECT_ID,EPOCH,MEAN_MOTION,ECCENTRICITY,INCLINATION,RA_OF_ASC_NODE,ARG_OF_PERICENTER,MEAN_ANOMALY,EPHEMERIS_TYPE,CLASSIFICATION_TYPE,NORAD_CAT_ID,ELEMENT_SET_NO,REV_AT_EPOCH,BSTAR,MEAN_MOTION_DOT,MEAN_MOTION_DDOT
STARLINK-37420,2026-133D,2026-06-18T20:00:01.999008,16.04796746,.0000785,53.1589,314.3770,55.8026,173.6788,0,U,69511,999,212,-.24211E-2,-.1678966E-1,.90363E-3
STARLINK-37511,2026-133E,2026-06-18T20:00:01.999008,16.04465478,.0000802,53.1594,314.3850,55.2041,170.5568,0,U,69512,999,212,-.25079E-2,-.1704164E-1,.92536E-3
STARLINK-37552,2026-133F,2026-06-18T20:00:01.999008,16.05096645,.0000759,53.1590,314.3700,48.5670,184.4338,0,U,69513,999,212,-.23719E-2,-.1675335E-1,.90325E-3
STARLINK-37607,2026-133G,2026-06-18T20:00:01.999008,16.05294451,.0000811,53.1591,314.3629,55.5360,180.5994,0,U,69514,999,212,-.23139E-2,-.1654553E-1,.88462E-3
STARLINK-37232,2026-133H,2026-06-18T20:00:01.999008,16.05587771,.0000711,53.1590,314.3559,57.7067,181.9504,0,U,69515,999,212,-.22513E-2,-.1639323E-1,.87264E-3
STARLINK-37323,2026-133J,2026-06-18T20:00:01.999008,16.05868284,.0000765,53.1590,314.3485,54.7923,188.3319,0,U,69516,999,212,-.21945E-2,-.1626073E-1,.86251E-3
STARLINK-37357,2026-133K,2026-06-18T20:00:01.999008,16.06045835,.000079,53.1589,314.3422,51.1194,194.9846,0,U,69517,999,212,-.21692E-2,-.1625134E-1,.86345E-3
STARLINK-37408,2026-133L,2026-06-18T20:00:01.999008,16.06305613,.0000768,53.1589,314.3351,52.0142,197.4509,0,U,69518,999,212,-.21221E-2,-.161583E-1,.85701E-3
STARLINK-37570,2026-133M,2026-06-18T20:00:01.999008,16.06972854,.0000702,53.1590,314.3196,57.2509,199.5997,0,U,69519,999,212,-.19929E-2,-.1582562E-1,.83135E-3
STARLINK-37510,2026-133N,2026-06-18T20:00:01.999008,16.06644790,.0000817,53.1585,314.3281,53.2947,199.8855,0,U,69520,999,212,-.2055E-2,-.1598448E-1,.84348E-3
STARLINK-37586,2026-133P,2026-06-18T20:00:01.999008,16.07449138,.0000671,53.1587,314.3063,58.8322,204.5595,0,U,69521,999,212,-.18983E-2,-.1553797E-1,.80831E-3
STARLINK-37379,2026-133Q,2026-06-18T20:00:01.999008,16.07635732,.0000678,53.1587,314.2997,65.7164,200.7275,0,U,69522,999,217,-.18641E-2,-.1544052E-1,.8008E-3
STARLINK-37429,2026-133R,2026-06-18T20:00:01.999008,16.07818462,.0000707,53.1586,314.2934,67.4096,202.0477,0,U,69523,999,217,-.18319E-2,-.1535213E-1,.79414E-3
STARLINK-37352,2026-133S,2026-06-18T20:00:01.999008,16.08145332,.0000598,53.1586,314.2858,70.4663,202.6154,0,U,69524,999,217,-.17728E-2,-.1517291E-1,.78025E-3
STARLINK-37490,2026-133T,2026-06-18T20:00:01.999008,16.08762041,.0000746,53.1583,314.2710,68.2533,211.9967,0,U,69525,999,217,-.16533E-2,-.147275E-1,.7442E-3
STARLINK-37438,2026-133U,2026-06-18T20:00:01.999008,16.08411488,.0001072,53.1587,314.2794,81.1485,195.3149,0,U,69526,999,217,-.17333E-2,-.1509177E-1,.77513E-3
STARLINK-37484,2026-133V,2026-06-18T20:00:01.999008,16.09006228,.0000615,53.1584,314.2622,69.6539,214.7752,0,U,69527,999,217,-.16419E-2,-.1485656E-1,.75862E-3
STARLINK-37523,2026-133W,2026-06-18T20:00:01.999008,16.09193263,.0000551,53.1585,314.2557,68.5062,219.0031,0,U,69528,999,217,-.15772E-2,-.1445102E-1,.72256E-3
STARLINK-37369,2026-133X,2026-06-18T20:00:01.999008,16.09401406,.000083,53.1581,314.2493,68.4725,222.1630,0,U,69529,999,217,-.15441E-2,-.1434194E-1,.71442E-3
STARLINK-37670,2026-133Y,2026-06-18T20:00:01.999008,16.09813553,.0001047,53.1583,314.2412,91.7721,202.9039,0,U,69530,999,217,-.14609E-2,-.1394543E-1,.68205E-3
STARLINK-37897,2026-133Z,2026-06-18T20:00:01.999008,16.10092403,.000091,53.1582,314.2314,84.5329,214.6160,0,U,69531,999,212,-.14267E-2,-.1387161E-1,.67783E-3
STARLINK-37933,2026-133AA,2026-06-18T20:00:01.999008,16.10516126,.0000989,53.1581,314.2226,77.8436,225.3921,0,U,69532,999,212,-.13469E-2,-.1347325E-1,.646E-3
STARLINK-37890,2026-133AB,2026-06-18T20:00:01.999008,16.10749568,.0001004,53.1583,314.2158,88.9909,217.4808,0,U,69533,999,212,-.1315E-2,-.1336042E-1,.63802E-3
STARLINK-37407,2026-133AC,2026-06-18T20:00:01.999008,16.11072117,.0001057,53.1581,314.2050,87.0499,224.3959,0,U,69534,999,217,-.12764E-2,-.1325178E-1,.63116E-3
STARLINK-37888,2026-133AD,2026-06-18T20:00:01.999008,16.11394001,.0000573,53.1583,314.1973,77.9123,237.1710,0,U,69535,999,212,-.12199E-2,-.1294477E-1,.60714E-3
STARLINK-37889,2026-133AE,2026-06-18T20:00:01.999008,16.07171906,.0000802,53.1603,314.3148,54.2182,205.7427,0,U,69536,999,212,-.19432E-2,-.156284E-1,.81424E-3
2026-134A,2026-134A,2026-06-16T17:23:06.260928,15.09200639,.00141542,97.7003,237.8242,273.9919,85.9691,0,U,69538,999,24,.41007631E-4,.587E-5,0
2026-134B,2026-134B,2026-06-16T17:22:52.264128,15.09360646,.00144875,97.6974,237.8233,276.4553,83.5026,0,U,69539,999,23,.83138065E-4,.1264E-4,0
